EUTELSAT QUANTUM        
1 49056U 21069B   26008.25392145  .00000131  00000+0  00000+0 0  9992
2 49056   0.0108  25.1514 0003677 268.8263 312.9308  1.00272976 16323
EUTELSAT KONNECT VHTS   
1 53765U 22110A   26008.52577844  .00000023  00000+0  00000+0 0  9993
2 53765   0.0588  96.6777 0002525 170.3653  33.0316  1.00272226  5238
EUTELSAT HOTBIRD 13F    
1 54048U 22134A   26008.59927223  .00000093  00000+0  00000+0 0  9998
2 54048   0.0583 286.5105 0002185  72.7770 337.5686  1.00271430 11774
EUTELSAT HOTBIRD 13G    
1 54225U 22146A   26008.59927223  .00000093  00000+0  00000+0 0  9998
2 54225   0.0495 226.3054 0001951 315.1138 155.4441  1.00271357  5867
EUTELSAT 10B            
1 54259U 22157A   26008.17405747  .00000072  00000+0  00000+0 0  9990
2 54259   0.0612  94.6711 0000459  63.2645  22.3944  1.00269697 11420
EUTELSAT 36D            
1 59346U 24059A   26008.60377894  .00000000  00000+0  00000+0 0  9995
2 59346   0.0216  50.8248 0000282 313.1747 357.3642  1.00268689  6548
